start=new Date('2023-06-30T00:00:00.000Z').valueOf();
sats=[{"FILE":"3945479","MEAN_MOTION_DDOT":"0.0000000000000","PERIOD":"95.592","OBJECT_TYPE":"PAYLOAD","TIME_SYSTEM":"UTC","ARG_OF_PERICENTER":"100.8847","CLASSIFICATION_TYPE":"U","BSTAR":"0.00004691800000","GP_ID":"234617533","SEMIMAJOR_AXIS":"6925.341","ECCENTRICITY":"0.00014470","INCLINATION":"53.0548","MEAN_MOTION_DOT":"0.00000417","NORAD_CAT_ID":"45182","REV_AT_EPOCH":"18608","APOAPSIS":"548.208","ELEMENT_SET_NO":"999","OBJECT_ID":"2020-012E","LAUNCH_DATE":"2020-02-17","EPHEMERIS_TYPE":"0","RA_OF_ASC_NODE":"126.3074","COUNTRY_CODE":"US","CENTER_NAME":"EARTH","REF_FRAME":"TEME","EPOCH":"2023-06-29T04:02:34.194048","TLE_LINE1":"1 45182U 20012E   23180.16845132  .00000417  00000-0  46918-4 0  9993","OBJECT_NAME":"STARLINK-1201","MEAN_ANOMALY":"259.2305","PERIAPSIS":"546.204","MEAN_ELEMENT_THEORY":"SGP4","RCS_SIZE":"LARGE","TLE_LINE2":"2 45182  53.0548 126.3074 0001447 100.8847 259.2305 15.06402526186084","SITE":"AFETR","MEAN_MOTION":"15.06402526","DECAY_DATE":null},{"MEAN_MOTION":"15.06405701","DECAY_DATE":null,"OBJECT_NAME":"STARLINK-1202","MEAN_ANOMALY":"273.2077","PERIAPSIS":"546.398","TLE_LINE2":"2 45183  53.0543 146.2325 0001152  86.9044 273.2077 15.06405701185805","SITE":"AFETR","MEAN_ELEMENT_THEORY":"SGP4","RCS_SIZE":"LARGE","REF_FRAME":"TEME","CENTER_NAME":"EARTH","EPOCH":"2023-06-29T04:26:27.022272","TLE_LINE1":"1 45183U 20012F   23180.18503498  .00000818  00000-0  73793-4 0  9998","LAUNCH_DATE":"2020-02-17","EPHEMERIS_TYPE":"0","RA_OF_ASC_NODE":"146.2325","ELEMENT_SET_NO":"999","OBJECT_ID":"2020-012F","COUNTRY_CODE":"US","ECCENTRICITY":"0.00011520","INCLINATION":"53.0543","MEAN_MOTION_DOT":"0.00000818","SEMIMAJOR_AXIS":"6925.331","APOAPSIS":"547.994","NORAD_CAT_ID":"45183","REV_AT_EPOCH":"18580","CLASSIFICATION_TYPE":"U","GP_ID":"234617541","BSTAR":"0.00007379300000","PERIOD":"95.592","ARG_OF_PERICENTER":"86.9044","TIME_SYSTEM":"UTC","OBJECT_TYPE":"PAYLOAD","FILE":"3945479","MEAN_MOTION_DDOT":"0.0000000000000"},{"MEAN_MOTION":"15.06421066","DECAY_DATE":null,"MEAN_ELEMENT_THEORY":"SGP4","RCS_SIZE":"LARGE","TLE_LINE2":"2 45184  53.0526 126.5668 0001386  98.0170 262.0976 15.06421066186044","SITE":"AFETR","OBJECT_NAME":"STARLINK-1205","MEAN_ANOMALY":"262.0976","PERIAPSIS":"546.189","EPOCH":"2023-06-29T02:37:39.507456","TLE_LINE1":"1 45184U 20012G   23180.10948504  .00011239  00000-0  77175-3 0  9998","CENTER_NAME":"EARTH","REF_FRAME":"TEME","COUNTRY_CODE":"US","OBJECT_ID":"2020-012G","ELEMENT_SET_NO":"999","LAUNCH_DATE":"2020-02-17","RA_OF_ASC_NODE":"126.5668","EPHEMERIS_TYPE":"0","NORAD_CAT_ID":"45184","REV_AT_EPOCH":"18604","APOAPSIS":"548.109","SEMIMAJOR_AXIS":"6925.284","ECCENTRICITY":"0.00013860","MEAN_MOTION_DOT":"0.00011239","INCLINATION":"53.0526","BSTAR":"0.00077175000000","GP_ID":"234614770","CLASSIFICATION_TYPE":"U","OBJECT_TYPE":"PAYLOAD","TIME_SYSTEM":"UTC","ARG_OF_PERICENTER":"98.0170","PERIOD":"95.591","FILE":"3945348","MEAN_MOTION_DDOT":"0.0000000000000"},{"ECCENTRICITY":"0.00011220","MEAN_MOTION_DOT":"0.00005077","INCLINATION":"53.0522","SEMIMAJOR_AXIS":"6925.367","APOAPSIS":"548.009","NORAD_CAT_ID":"45185","REV_AT_EPOCH":"18572","CLASSIFICATION_TYPE":"U","GP_ID":"234610295","BSTAR":"0.00035952000000","PERIOD":"95.593","ARG_OF_PERICENTER":"91.9451","TIME_SYSTEM":"UTC","OBJECT_TYPE":"PAYLOAD","FILE":"3945172","MEAN_MOTION_DDOT":"0.0000000000000","MEAN_MOTION":"15.06394144","DECAY_DATE":null,"OBJECT_NAME":"STARLINK-1216","PERIAPSIS":"546.454","MEAN_ANOMALY":"268.1666","TLE_LINE2":"2 45185  53.0522 148.6442 0001122  91.9451 268.1666 15.06394144185721","SITE":"AFETR","MEAN_ELEMENT_THEORY":"SGP4","RCS_SIZE":"LARGE","REF_FRAME":"TEME","CENTER_NAME":"EARTH","EPOCH":"2023-06-28T15:31:31.760832","TLE_LINE1":"1 45185U 20012H   23179.64689538  .00005077  00000-0  35952-3 0  9995","LAUNCH_DATE":"2020-02-17","EPHEMERIS_TYPE":"0","RA_OF_ASC_NODE":"148.6442","OBJECT_ID":"2020-012H","ELEMENT_SET_NO":"999","COUNTRY_CODE":"US"},{"COUNTRY_CODE":"US","LAUNCH_DATE":"2020-02-17","EPHEMERIS_TYPE":"0","RA_OF_ASC_NODE":"146.4991","ELEMENT_SET_NO":"999","OBJECT_ID":"2020-012J","EPOCH":"2023-06-29T03:01:31.871712","TLE_LINE1":"1 45186U 20012J   23180.12606333  .00000007  00000-0  19377-4 0  9995","REF_FRAME":"TEME","CENTER_NAME":"EARTH","SITE":"AFETR","TLE_LINE2":"2 45186  53.0549 146.4991 0001265  82.7120 277.4013 15.06401104185796","MEAN_ELEMENT_THEORY":"SGP4","RCS_SIZE":"LARGE","OBJECT_NAME":"STARLINK-1224","PERIAPSIS":"546.334","MEAN_ANOMALY":"277.4013","MEAN_MOTION":"15.06401104","DECAY_DATE":null,"FILE":"3945307","MEAN_MOTION_DDOT":"0.0000000000000","ARG_OF_PERICENTER":"82.7120","TIME_SYSTEM":"UTC","OBJECT_TYPE":"PAYLOAD","PERIOD":"95.592","GP_ID":"234613678","BSTAR":"0.00001937700000","CLASSIFICATION_TYPE":"U","APOAPSIS":"548.086","NORAD_CAT_ID":"45186","REV_AT_EPOCH":"18579","ECCENTRICITY":"0.00012650","INCLINATION":"53.0549","MEAN_MOTION_DOT":"0.00000007","SEMIMAJOR_AXIS":"6925.345"},{"CLASSIFICATION_TYPE":"U","BSTAR":"0.00003847300000","GP_ID":"234613682","SEMIMAJOR_AXIS":"6925.325","ECCENTRICITY":"0.00007560","INCLINATION":"53.0541","MEAN_MOTION_DOT":"0.00000292","NORAD_CAT_ID":"45187","REV_AT_EPOCH":"18555","APOAPSIS":"547.714","FILE":"3945308","MEAN_MOTION_DDOT":"0.0000000000000","PERIOD":"95.592","OBJECT_TYPE":"PAYLOAD","TIME_SYSTEM":"UTC","ARG_OF_PERICENTER":"88.2987","OBJECT_NAME":"STARLINK-1225","MEAN_ANOMALY":"271.8089","PERIAPSIS":"546.667","MEAN_ELEMENT_THEORY":"SGP4","RCS_SIZE":"LARGE","TLE_LINE2":"2 45187  53.0541 146.1801 0000756  88.2987 271.8089 15.06407582185553","SITE":"AFETR","MEAN_MOTION":"15.06407582","DECAY_DATE":null,"OBJECT_ID":"2020-012K","ELEMENT_SET_NO":"999","RA_OF_ASC_NODE":"146.1801","LAUNCH_DATE":"2020-02-17","EPHEMERIS_TYPE":"0","COUNTRY_CODE":"US","CENTER_NAME":"EARTH","REF_FRAME":"TEME","EPOCH":"2023-06-29T04:42:22.157856","TLE_LINE1":"1 45187U 20012K   23180.19608979  .00000292  00000-0  38473-4 0  9995"},{"MEAN_MOTION":"15.06412794","DECAY_DATE":null,"SITE":"AFETR","TLE_LINE2":"2 45188  53.0538 103.6693 0001343  90.6520 269.4622 15.06412794186109","MEAN_ELEMENT_THEORY":"SGP4","RCS_SIZE":"LARGE","OBJECT_NAME":"STARLINK-1228","MEAN_ANOMALY":"269.4622","PERIAPSIS":"546.244","EPOCH":"2023-06-29T18:09:10.067328","TLE_LINE1":"1 45188U 20012L   23180.75636652  .00004195  00000-0  30023-3 0  9995","REF_FRAME":"TEME","CENTER_NAME":"EARTH","COUNTRY_CODE":"US","RA_OF_ASC_NODE":"103.6693","LAUNCH_DATE":"2020-02-17","EPHEMERIS_TYPE":"0","OBJECT_ID":"2020-012L","ELEMENT_SET_NO":"999","APOAPSIS":"548.104","NORAD_CAT_ID":"45188","REV_AT_EPOCH":"18610","ECCENTRICITY":"0.00013430","MEAN_MOTION_DOT":"0.00004195","INCLINATION":"53.0538","SEMIMAJOR_AXIS":"6925.309","GP_ID":"234629741","BSTAR":"0.00030023000000","CLASSIFICATION_TYPE":"U","ARG_OF_PERICENTER":"90.6520","OBJECT_TYPE":"PAYLOAD","TIME_SYSTEM":"UTC","PERIOD":"95.591","FILE":"3945942","MEAN_MOTION_DDOT":"0.0000000000000"},{"MEAN_ELEMENT_THEORY":"SGP4","RCS_SIZE":"LARGE","TLE_LINE2":"2 45189  53.0543 146.4614 0001265  93.0240 267.0893 15.06405264185504","SITE":"AFETR","OBJECT_NAME":"STARLINK-1230","PERIAPSIS":"546.321","MEAN_ANOMALY":"267.0893","MEAN_MOTION":"15.06405264","DECAY_DATE":null,"COUNTRY_CODE":"US","OBJECT_ID":"2020-012M","ELEMENT_SET_NO":"999","RA_OF_ASC_NODE":"146.4614","LAUNCH_DATE":"2020-02-17","EPHEMERIS_TYPE":"0","EPOCH":"2023-06-29T03:12:08.637120","TLE_LINE1":"1 45189U 20012M   23180.13343330  .00000726  00000-0  67649-4 0  9997","CENTER_NAME":"EARTH","REF_FRAME":"TEME","BSTAR":"0.00006764900000","GP_ID":"234616199","CLASSIFICATION_TYPE":"U","NORAD_CAT_ID":"45189","REV_AT_EPOCH":"18550","APOAPSIS":"548.073","SEMIMAJOR_AXIS":"6925.332","ECCENTRICITY":"0.00012650","INCLINATION":"53.0543","MEAN_MOTION_DOT":"0.00000726","FILE":"3945379","MEAN_MOTION_DDOT":"0.0000000000000","TIME_SYSTEM":"UTC","OBJECT_TYPE":"PAYLOAD","ARG_OF_PERICENTER":"93.0240","PERIOD":"95.592"},{"DECAY_DATE":null,"MEAN_MOTION":"15.06422621","TLE_LINE2":"2 45190  53.0533 106.3806 0001103  95.8916 264.2199 15.06422621186026","SITE":"AFETR","RCS_SIZE":"LARGE","MEAN_ELEMENT_THEORY":"SGP4","PERIAPSIS":"546.380","MEAN_ANOMALY":"264.2199","OBJECT_NAME":"STARLINK-1234","TLE_LINE1":"1 45190U 20012N   23180.15186569  .00015265  00000-0  10408-2 0  9993","EPOCH":"2023-06-29T03:38:41.195616","REF_FRAME":"TEME","CENTER_NAME":"EARTH","COUNTRY_CODE":"US","EPHEMERIS_TYPE":"0","LAUNCH_DATE":"2020-02-17","RA_OF_ASC_NODE":"106.3806","OBJECT_ID":"2020-012N","ELEMENT_SET_NO":"999","APOAPSIS":"547.908","REV_AT_EPOCH":"18602","NORAD_CAT_ID":"45190","MEAN_MOTION_DOT":"0.00015265","INCLINATION":"53.0533","ECCENTRICITY":"0.00011030","SEMIMAJOR_AXIS":"6925.279","GP_ID":"234617563","BSTAR":"0.00104080000000","CLASSIFICATION_TYPE":"U","ARG_OF_PERICENTER":"95.8916","OBJECT_TYPE":"PAYLOAD","TIME_SYSTEM":"UTC","PERIOD":"95.591","MEAN_MOTION_DDOT":"0.0000000000000","FILE":"3945451"},{"BSTAR":"0.00001193800000","GP_ID":"234618525","CLASSIFICATION_TYPE":"U","NORAD_CAT_ID":"45191","REV_AT_EPOCH":"18580","APOAPSIS":"548.017","SEMIMAJOR_AXIS":"6925.332","ECCENTRICITY":"0.00011850","MEAN_MOTION_DOT":"-0.00000104","INCLINATION":"53.0535","FILE":"3945486","MEAN_MOTION_DDOT":"0.0000000000000","OBJECT_TYPE":"PAYLOAD","TIME_SYSTEM":"UTC","ARG_OF_PERICENTER":"88.3092","PERIOD":"95.592","MEAN_ELEMENT_THEORY":"SGP4","RCS_SIZE":"LARGE","TLE_LINE2":"2 45191  53.0535 146.1294 0001185  88.3092 271.8032 15.06405479185801","SITE":"AFETR","OBJECT_NAME":"STARLINK-1236","MEAN_ANOMALY":"271.8032","PERIAPSIS":"546.376","MEAN_MOTION":"15.06405479","DECAY_DATE":null,"COUNTRY_CODE":"US","OBJECT_ID":"2020-012P","ELEMENT_SET_NO":"999","RA_OF_ASC_NODE":"146.1294","LAUNCH_DATE":"2020-02-17","EPHEMERIS_TYPE":"0","EPOCH":"2023-06-29T04:58:17.385024","TLE_LINE1":"1 45191U 20012P   23180.20714566 -.00000104  00000-0  11938-4 0  9992","CENTER_NAME":"EARTH","REF_FRAME":"TEME"}];
